TIANMU-1 20             
1 58661U 23208B   26160.62094396  .00007339  00000+0  23513-3 0  9993
2 58661  97.4433 277.5109 0006691   3.2578 356.8706 15.32650753136266
TIANMU-1 21             
1 58662U 23208C   26160.62062714  .00008803  00000+0  26197-3 0  9991
2 58662  97.4492 280.1587 0006553 355.1557   4.9621 15.34942418136402
TIANMU-1 22             
1 58663U 23208D   26160.62185253  .00006803  00000+0  23006-3 0  9990
2 58663  97.4487 276.8267 0003927  30.2329 329.9138 15.30951867136175
TIANMU-1 15             
1 58700U 24004A   26160.62815462  .00005116  00000+0  19608-3 0  9998
2 58700  97.4673 346.8179 0007454  27.8475 332.3161 15.26945584134623
TIANMU-1 16             
1 58701U 24004B   26160.61602925  .00005115  00000+0  19768-3 0  9992
2 58701  97.4619 346.0512 0006575  32.7500 327.4145 15.26670786134620
TIANMU-1 17             
1 58702U 24004C   26160.60147918  .00005183  00000+0  20032-3 0  9999
2 58702  97.4647 346.5187 0006252  38.6294 321.5391 15.26670316134618
TIANMU-1 18             
1 58703U 24004D   26160.64468141  .00005058  00000+0  19407-3 0  9993
2 58703  97.4665 346.8127 0004733  38.0409 322.1163 15.26929344134623
INSAT-3DS               
1 58990U 24033A   26160.50073903 -.00000139  00000+0  00000+0 0  9997
2 58990   0.0039 105.7665 0001203 327.6742  86.7876  1.00272814 46997
METEOR-M2 4             
1 59051U 24039A   26160.65683299  .00000005  00000+0  21885-4 0  9993
2 59051  98.7007 120.0496 0006844 182.4161 177.6985 14.22428804118198
GOES 19                 
1 60133U 24119A   26160.39823964 -.00000231  00000+0  00000+0 0  9994
2 60133   0.0371 156.7989 0000465 350.6695 178.4881  1.00271943  6886
MTG-S1                  
1 64723U 25143A   26160.34116074 -.00000015  00000+0  00000+0 0  9993
2 64723   0.6103 337.1481 0001016  26.2649  13.6462  1.00271609  3346
METOP-SGA1              
1 65159U 25172A   26160.39612493  .00000031  00000+0  34203-4 0  9994
2 65159  98.6646 220.2659 0000929  88.2928 271.8356 14.21508511 42680
FENGYUN 3H              
1 65815U 25219A   26160.43070179  .00000050  00000+0  43769-4 0  9997
2 65815  98.6766 101.3507 0001636  82.8198 277.3164 14.19919135 36280
