OBJECT_NAME,OBJECT_ID,EPOCH,MEAN_MOTION,ECCENTRICITY,INCLINATION,RA_OF_ASC_NODE,ARG_OF_PERICENTER,MEAN_ANOMALY,EPHEMERIS_TYPE,CLASSIFICATION_TYPE,NORAD_CAT_ID,ELEMENT_SET_NO,REV_AT_EPOCH,BSTAR,MEAN_MOTION_DOT,MEAN_MOTION_DDOT
TIANMU-1 20,2023-208B,2026-06-09T14:54:09.558144,15.32650753,.0006691,97.4433,277.5109,3.2578,356.8706,0,U,58661,999,13626,.23513284E-3,.7339E-4,0
TIANMU-1 21,2023-208C,2026-06-09T14:53:42.184896,15.34942418,.0006553,97.4492,280.1587,355.1557,4.9621,0,U,58662,999,13640,.26196974E-3,.8803E-4,0
TIANMU-1 22,2023-208D,2026-06-09T14:55:28.058592,15.30951867,.0003927,97.4487,276.8267,30.2329,329.9138,0,U,58663,999,13617,.23005681E-3,.6803E-4,0
TIANMU-1 15,2024-004A,2026-06-09T15:04:32.559168,15.26945584,.00074548,97.4673,346.8179,27.8475,332.3161,0,U,58700,999,13462,.19608391E-3,.5116E-4,0
TIANMU-1 16,2024-004B,2026-06-09T14:47:04.927200,15.26670786,.00065758,97.4619,346.0512,32.7500,327.4145,0,U,58701,999,13462,.19768356E-3,.5115E-4,0
TIANMU-1 17,2024-004C,2026-06-09T14:26:07.801152,15.26670316,.00062524,97.4647,346.5187,38.6294,321.5391,0,U,58702,999,13461,.20032006E-3,.5183E-4,0
TIANMU-1 18,2024-004D,2026-06-09T15:28:20.473824,15.26929344,.00047338,97.4665,346.8127,38.0409,322.1163,0,U,58703,999,13462,.19406615E-3,.5058E-4,0
INSAT-3DS,2024-033A,2026-06-09T12:01:03.852192,1.00272814,.00012035,0.0039,105.7665,327.6742,86.7876,0,U,58990,999,4699,0,-.139E-5,0
METEOR-M2 4,2024-039A,2026-06-09T15:45:50.370336,14.22428804,.0006844,98.7007,120.0496,182.4161,177.6985,0,U,59051,999,11819,.21884675E-4,.5E-7,0
GOES 19,2024-119A,2026-06-09T09:33:27.904896,1.00271943,.00004657,0.0371,156.7989,350.6695,178.4881,0,U,60133,999,688,0,-.231E-5,0
MTG-S1,2025-143A,2026-06-09T08:11:16.287936,1.00271609,.0001016,0.6103,337.1481,26.2649,13.6462,0,U,64723,999,334,0,-.15E-6,0
METOP-SGA1,2025-172A,2026-06-09T09:30:25.193952,14.21508511,.00009298,98.6646,220.2659,88.2928,271.8356,0,U,65159,999,4268,.34203193E-4,.31E-6,0
FENGYUN 3H,2025-219A,2026-06-09T10:20:12.634656,14.19919135,.00016364,98.6766,101.3507,82.8198,277.3164,0,U,65815,999,3628,.43768822E-4,.5E-6,0
